{"spkid": "50137750", "covariance": {"epoch": "2454099.5", "elements": [{"name": "e", "sigma": 1.04392347058816e-07, "units": null, "title": "eccentricity", "value": ".570919604084108", "label": "e"}, {"units": "au", "title": "perihelion distance", "value": ".9576438532590983", "sigma": 2.31265439678288e-07, "name": "q", "label": "q"}, {"label": "tp", "name": "tp", "sigma": 7.84064379236804e-05, "value": "2453746.162845464804", "title": "time of perihelion passage", "units": "TDB"}, {"units": "deg", "title": "longitude of the ascending node", "value": "190.2600416310691", "sigma": 1.20596297541585e-05, "name": "om", "label": "node"}, {"label": "peri", "units": "deg", "title": "argument of perihelion", "value": "148.8169536928352", "sigma": 8.87874186230773e-05, "name": "w"}, {"label": "i", "units": "deg", "value": "4.380331121466488", "title": "inclination", "sigma": 1.88090961865211e-05, "name": "i"}], "data": [["1.089776212444831E-14", "-2.414149239573956E-14", "-7.209328951918847E-12", "1.844764326629272E-13", "-8.594028020339935E-12", "8.923965577747176E-13"], ["-2.414149239573956E-14", "5.348370358959203E-14", "1.5907934802874E-11", "-4.09949272155483E-13", "1.898465798338125E-11", "-1.960299496220645E-12"], ["-7.209328951918847E-12", "1.5907934802874E-11", "6.147569507879948E-9", "-9.482938310632605E-11", "6.838076650367113E-9", "-9.478879370867409E-10"], ["1.844764326629272E-13", "-4.09949272155483E-13", "-9.482938310632605E-11", "1.454346698073849E-10", "-2.632770937761386E-10", "9.669588544492804E-11"], ["-8.594028020339935E-12", "1.898465798338125E-11", "6.838076650367113E-9", "-2.632770937761386E-10", "7.88320570574958E-9", "-1.089822798162884E-9"], ["8.923965577747176E-13", "-1.960299496220645E-12", "-9.478879370867409E-10", "9.669588544492804E-11", "-1.089822798162884E-9", "3.537820993538011E-10"]], "labels": ["e", "q", "tp", "node", "peri", "i"]}, "elements": [{"sigma": "1.1223E-7", "name": "e", "value": ".5720833881791751", "title": "eccentricity", "units": null, "label": "e"}, {"label": "a", "sigma": "7.1896E-9", "name": "a", "title": "semi-major axis", "value": "2.236055013694817", "units": "au"}, {"sigma": "2.5368E-7", "name": "q", "title": "perihelion distance", "value": ".956845085305254", "units": "au", "label": "q"}, {"label": "i", "sigma": "1.8862E-5", "name": "i", "value": "4.388712717733928", "title": "inclination; angle with respect to x-y ecliptic plane", "units": "deg"}, {"label": "node", "title": "longitude of the ascending node", "value": "190.052793820416", "units": "deg", "name": "om", "sigma": "1.2015E-5"}, {"label": "peri", "name": "w", "sigma": "8.8103E-5", "units": "deg", "title": "argument of perihelion", "value": "149.0250097472876"}, {"units": "deg", "title": "mean anomaly", "value": "40.43595899505255", "sigma": "2.4079E-5", "name": "ma", "label": "M"}, {"sigma": "8.1074E-5", "name": "tp", "title": "time of perihelion passage", "value": "2461063.321073476164", "units": "TDB", "label": "tp"}, {"label": "period", "value": "1221.299426943809", "title": "sidereal orbital period", "units": "d", "sigma": "5.8903E-6", "name": "per"}, {"label": "n", "sigma": "1.4217E-9", "name": "n", "units": "deg/d", "value": ".2947680086126524", "title": "mean motion"}, {"name": "ad", "sigma": "1.1303E-8", "title": "aphelion distance", "value": "3.51526494208438", "units": "au", "label": "Q"}], "epoch": "2461200.5"}